OBJECT_NAME,OBJECT_ID,EPOCH,MEAN_MOTION,ECCENTRICITY,INCLINATION,RA_OF_ASC_NODE,ARG_OF_PERICENTER,MEAN_ANOMALY,EPHEMERIS_TYPE,CLASSIFICATION_TYPE,NORAD_CAT_ID,ELEMENT_SET_NO,REV_AT_EPOCH,BSTAR,MEAN_MOTION_DOT,MEAN_MOTION_DDOT
STARLINK-11450 [DTC],2025-004H,2026-06-24T05:27:28.027008,15.70936091,.00011551,43.0000,148.6006,223.1841,136.8936,0,U,62518,999,8396,.13878512E-2,.182325E-2,0
STARLINK-11507 [DTC],2025-004J,2026-06-24T05:35:06.766944,15.70847079,.00043987,43.0006,148.6414,290.1700,69.8694,0,U,62519,999,8396,.12991605E-2,.169806E-2,0
STARLINK-11482 [DTC],2025-004K,2026-06-24T04:49:14.450016,15.70884690,.00008394,43.0001,148.3865,252.5466,107.5310,0,U,62520,999,8396,.11013199E-2,.1436E-2,0
STARLINK-11528 [DTC],2025-004L,2026-06-23T05:33:05.538240,15.70900447,.00019837,42.9992,154.8991,251.5391,108.5261,0,U,62521,999,8380,.10540543E-2,.137411E-2,0
STARLINK-11516 [DTC],2025-004M,2026-06-24T05:12:10.544544,15.70925860,.00010614,43.0003,148.5119,228.5847,131.4929,0,U,62522,999,8396,.12514981E-2,.163931E-2,0
STARLINK-11527 [DTC],2025-004N,2026-06-24T04:56:53.106144,15.70938410,.00013835,42.9989,148.4255,235.7119,124.3617,0,U,62523,999,8396,.14991682E-2,.197365E-2,0
STARLINK-32748,2025-004P,2026-06-24T03:47:50.938944,15.27586612,.00011169,43.0014,338.4199,281.5733,78.4993,0,U,62524,999,8274,.58196018E-3,.1579E-3,0
STARLINK-32777,2025-004Q,2026-06-23T17:46:06.817152,15.27596878,.00017693,43.0005,341.3033,274.9978,85.0672,0,U,62525,999,8267,.65613437E-3,.17846E-3,0
STARLINK-32741,2025-004R,2026-06-23T22:12:37.314432,15.27604465,.00019163,43.0006,336.6488,278.9200,81.1434,0,U,62526,999,8274,.64568904E-3,.17562E-3,0
STARLINK-32754,2025-004S,2026-06-24T04:10:03.522432,15.27565606,.0003431,43.0035,338.5342,256.7865,103.2604,0,U,62527,999,8179,.11109504E-2,.30425E-3,0
STARLINK-32786,2025-004T,2026-06-24T03:21:58.109760,15.27552536,.00015845,42.9993,338.2856,261.8718,98.1954,0,U,62528,999,8179,.94510206E-3,.25815E-3,0
STARLINK-32789,2025-004U,2026-06-24T04:19:17.885568,15.27589293,.00014079,43.0005,338.5775,272.5409,87.5282,0,U,62529,999,8274,.36563206E-3,.9816E-4,0
STARLINK-32791,2025-004V,2026-06-24T03:58:56.047872,15.27578348,.00031512,43.0081,338.4718,261.3090,98.7405,0,U,62530,999,8274,.58742461E-3,.15938E-3,0
STARLINK-32785,2025-004W,2026-06-23T20:39:37.513440,15.27588154,.00020262,43.0024,340.4896,279.2803,80.7819,0,U,62531,999,8269,.50359059E-3,.13625E-3,0
STARLINK-11538 [DTC],2025-006A,2026-06-23T09:51:28.265184,15.70858572,.00018366,43.0002,222.2824,272.5456,87.5201,0,U,62554,999,8323,.56299235E-3,.72482E-3,0
STARLINK-11534 [DTC],2025-006B,2026-06-23T09:59:07.068192,15.70854050,.00005773,43.0001,222.3236,198.0533,162.0314,0,U,62555,999,8323,.12128072E-2,.158261E-2,0
STARLINK-11515 [DTC],2025-006C,2026-06-23T14:03:24.869664,15.70971553,.00004332,42.9957,221.9016,74.7135,285.3780,0,U,62556,999,8325,.11512911E-2,.150821E-2,0
STARLINK-11478 [DTC],2025-006D,2026-06-23T19:39:03.468096,15.70920810,.00023552,43.0002,220.1940,284.8710,75.1897,0,U,62557,999,8329,.18523966E-2,.245222E-2,0
STARLINK-11358 [DTC],2025-006E,2026-06-23T10:22:03.358848,15.70958827,.00014038,42.9994,222.4509,241.9503,118.1223,0,U,62558,999,8323,.12446995E-2,.163251E-2,0
STARLINK-11517 [DTC],2025-006F,2026-06-23T19:46:41.849472,15.70870909,.000268,43.0002,220.2394,257.9501,102.1067,0,U,62559,999,8329,.10369471E-2,.134974E-2,0
STARLINK-11519 [DTC],2025-006G,2026-06-23T20:18:35.965440,15.70861683,.00016618,43.0029,220.4167,285.6064,74.4620,0,U,62560,999,8329,.12780713E-2,.167034E-2,0
STARLINK-11451 [DTC],2025-006H,2026-06-24T05:57:02.324448,15.70942305,.00010219,42.9980,217.3807,222.8920,137.1868,0,U,62561,999,8336,.12789063E-2,.167724E-2,0
STARLINK-11530 [DTC],2025-006J,2026-06-23T20:17:17.249856,15.70881230,.0001402,42.9996,220.4061,283.2570,76.8141,0,U,62562,999,8329,.15243184E-2,.200273E-2,0
STARLINK-11536 [DTC],2025-006K,2026-06-23T13:17:31.701696,15.70843241,.00016392,43.0003,221.6395,264.6896,95.3784,0,U,62563,999,8325,.1243549E-2,.162291E-2,0
STARLINK-11540 [DTC],2025-006L,2026-06-23T19:54:21.292704,15.70895480,.0001127,43.0011,220.2766,288.7790,71.2955,0,U,62564,999,8329,.14903504E-2,.19581E-2,0
STARLINK-11523 [DTC],2025-006M,2026-06-23T20:02:00.033504,15.71032675,.00017963,42.9989,220.3202,296.9746,63.0938,0,U,62565,999,8329,.12082332E-2,.158866E-2,0
STARLINK-11525 [DTC],2025-006N,2026-06-23T20:24:55.905984,15.70834201,.00014463,43.0005,220.4457,280.9083,79.1622,0,U,62566,999,8329,.20452601E-3,.2587E-3,0
STARLINK-32752,2025-006P,2026-06-23T22:56:03.487488,15.27612321,.00007452,42.9999,52.5354,249.0947,110.9825,0,U,62567,999,8111,.70617968E-3,.1924E-3,0
STARLINK-32760,2025-006Q,2026-06-23T23:03:28.352448,15.27593485,.00010983,43.0006,52.5563,269.5534,90.5192,0,U,62568,999,8111,.62706473E-3,.1704E-3,0
