STARLINK-11450 [DTC]    
1 62518U 25004H   26175.22740772  .00182325  00000+0  13879-2 0  9995
2 62518  43.0000 148.6006 0001155 223.1841 136.8936 15.70936091 83962
STARLINK-11507 [DTC]    
1 62519U 25004J   26175.23271721  .00169806  00000+0  12992-2 0  9994
2 62519  43.0006 148.6414 0004398 290.1700  69.8694 15.70847079 83965
STARLINK-11482 [DTC]    
1 62520U 25004K   26175.20086169  .00143600  00000+0  11013-2 0  9990
2 62520  43.0001 148.3865 0000839 252.5466 107.5310 15.70884690 83961
STARLINK-11528 [DTC]    
1 62521U 25004L   26174.23131410  .00137411  00000+0  10541-2 0  9991
2 62521  42.9992 154.8991 0001983 251.5391 108.5261 15.70900447 83806
STARLINK-11516 [DTC]    
1 62522U 25004M   26175.21678871  .00163931  00000+0  12515-2 0  9997
2 62522  43.0003 148.5119 0001061 228.5847 131.4929 15.70925860 83960
STARLINK-11527 [DTC]    
1 62523U 25004N   26175.20617021  .00197365  00000+0  14992-2 0  9996
2 62523  42.9989 148.4255 0001383 235.7119 124.3617 15.70938410 83961
STARLINK-32748          
1 62524U 25004P   26175.15822846  .00015790  00000+0  58196-3 0  9990
2 62524  43.0014 338.4199 0001116 281.5733  78.4993 15.27586612 82742
STARLINK-32777          
1 62525U 25004Q   26174.74035668  .00017846  00000+0  65613-3 0  9999
2 62525  43.0005 341.3033 0001769 274.9978  85.0672 15.27596878 82679
STARLINK-32741          
1 62526U 25004R   26174.92543188  .00017562  00000+0  64569-3 0  9995
2 62526  43.0006 336.6488 0001916 278.9200  81.1434 15.27604465 82741
STARLINK-32754          
1 62527U 25004S   26175.17365188  .00030425  00000+0  11110-2 0  9992
2 62527  43.0035 338.5342 0003431 256.7865 103.2604 15.27565606 81791
STARLINK-32786          
1 62528U 25004T   26175.14025590  .00025815  00000+0  94510-3 0  9993
2 62528  42.9993 338.2856 0001584 261.8718  98.1954 15.27552536 81799
STARLINK-32789          
1 62529U 25004U   26175.18006812  .00009816  00000+0  36563-3 0  9991
2 62529  43.0005 338.5775 0001407 272.5409  87.5282 15.27589293 82741
STARLINK-32791          
1 62530U 25004V   26175.16592648  .00015938  00000+0  58742-3 0  9993
2 62530  43.0081 338.4718 0003151 261.3090  98.7405 15.27578348 82743
STARLINK-32785          
1 62531U 25004W   26174.86085085  .00013625  00000+0  50359-3 0  9999
2 62531  43.0024 340.4896 0002026 279.2803  80.7819 15.27588154 82691
STARLINK-11538 [DTC]    
1 62554U 25006A   26174.41074381  .00072482  00000+0  56299-3 0  9999
2 62554  43.0002 222.2824 0001836 272.5456  87.5201 15.70858572 83231
STARLINK-11534 [DTC]    
1 62555U 25006B   26174.41605403  .00158261  00000+0  12128-2 0  9997
2 62555  43.0001 222.3236 0000577 198.0533 162.0314 15.70854050 83239
STARLINK-11515 [DTC]    
1 62556U 25006C   26174.58570451  .00150821  00000+0  11513-2 0  9991
2 62556  42.9957 221.9016 0000433  74.7135 285.3780 15.70971553 83254
STARLINK-11478 [DTC]    
1 62557U 25006D   26174.81879014  .00245222  00000+0  18524-2 0  9994
2 62557  43.0002 220.1940 0002355 284.8710  75.1897 15.70920810 83291
STARLINK-11358 [DTC]    
1 62558U 25006E   26174.43198332  .00163251  00000+0  12447-2 0  9999
2 62558  42.9994 222.4509 0001403 241.9503 118.1223 15.70958827 83237
STARLINK-11517 [DTC]    
1 62559U 25006F   26174.82409548  .00134974  00000+0  10369-2 0  9998
2 62559  43.0002 220.2394 0002680 257.9501 102.1067 15.70870909 83290
STARLINK-11519 [DTC]    
1 62560U 25006G   26174.84624960  .00167034  00000+0  12781-2 0  9992
2 62560  43.0029 220.4167 0001661 285.6064  74.4620 15.70861683 83296
STARLINK-11451 [DTC]    
1 62561U 25006H   26175.24794357  .00167724  00000+0  12789-2 0  9990
2 62561  42.9980 217.3807 0001021 222.8920 137.1868 15.70942305 83361
STARLINK-11530 [DTC]    
1 62562U 25006J   26174.84533854  .00200273  00000+0  15243-2 0  9994
2 62562  42.9996 220.4061 0001402 283.2570  76.8141 15.70881230 83295
STARLINK-11536 [DTC]    
1 62563U 25006K   26174.55383914  .00162291  00000+0  12435-2 0  9990
2 62563  43.0003 221.6395 0001639 264.6896  95.3784 15.70843241 83251
STARLINK-11540 [DTC]    
1 62564U 25006L   26174.82941311  .00195810  00000+0  14904-2 0  9998
2 62564  43.0011 220.2766 0001127 288.7790  71.2955 15.70895480 83299
STARLINK-11523 [DTC]    
1 62565U 25006M   26174.83472261  .00158866  00000+0  12082-2 0  9998
2 62565  42.9989 220.3202 0001796 296.9746  63.0938 15.71032675 83292
STARLINK-11525 [DTC]    
1 62566U 25006N   26174.85064706  .00025870  00000+0  20453-3 0  9992
2 62566  43.0005 220.4457 0001446 280.9083  79.1622 15.70834201 83298
STARLINK-32752          
1 62567U 25006P   26174.95559592  .00019240  00000+0  70618-3 0  9998
2 62567  42.9999  52.5354 0000745 249.0947 110.9825 15.27612321 81112
STARLINK-32760          
1 62568U 25006Q   26174.96074482  .00017040  00000+0  62706-3 0  9995
2 62568  43.0006  52.5563 0001098 269.5534  90.5192 15.27593485 81116
